{
    "id": 1,
    "start": 1588054885,
    "duration": 43200,
    "step": 30,
    "satellites": [
        {"id": "STARLINK-1244", "node": 1, "tle1": "1 45196U 20012U   20094.58334491 -.00029761  00000-0 -20303-2 0  9999", "tle2": "2 45196  52.9956  50.6558 0001754  72.9283 341.9461 15.05609076  1716"},
        {"id": "STARLINK-1102", "node": 2, "tle1": "1 44920U 20001G   20094.58334491  .00050489  00000-0  34604-2 0  9999", "tle2": "2 44920  53.0009 350.6416 0001892  65.4641  85.7463 15.05571452 13382"},
        {"id": "STARLINK-1032", "node": 3, "tle1": "1 44737U 19074AA  20094.58334491 -.00005148  00000-0 -33442-3 0  9997", "tle2": "2 44737  53.0002 210.6425 0001072  82.8131 134.9394 15.05576243 22184"}
    ],
    "stations": [
        {"id": "stgo", "node": 4, "lat": -33.3833, "lon": -70.7833, "alt": 476},
        {"id": "tokyo", "node": 5, "lat": 35.6830, "lon": 139.7670, "alt": 5}
    ],
    "targets": [
        {"id": "saa", "node": 6, "lat": -15.0, "lon": -15, "alt": 0}
    ],
    "tracks": "logs/track_1_1588054885.csv",
    "contacts": "logs/contacts_1_1588054885.csv"
}
